satname,norad_id,inclination_deg,eccentricity,mean_motion_rev_per_day,perigee_km,apogee_km,l1,l2
STARLINK-1202,45183,53.1588,0.000124,15.30200566,474.36356399881515,476.06319489291855,1 45183U 20012F   26089.58923599  .00001594  00000+0  65924-4 0  9999,2 45183  53.1588 302.1754 0001240  86.8913 273.2230 15.30200566338154
STARLINK-1216,45185,53.1604,0.0001425,15.30203414,474.22827463234535,476.18147706696163,1 45185U 20012H   26089.57975028  .00002558  00000+0  98467-4 0  9993,2 45185  53.1604 302.1971 0001425  97.0135 263.1028 15.30203414338092
STARLINK-1225,45187,53.1613,0.0001603,15.30225711,474.0397220517325,476.23688211357876,1 45187U 20012K   26088.98880628  .00005195  00000+0  18727-3 0  9990,2 45187  53.1613 305.3810 0001603  95.3274 264.7909 15.30225711338048
STARLINK-1230,45189,53.1595,0.0001514,15.30202868,474.16890989483545,476.244102308483,1 45189U 20012M   26089.58614973  .00000633  00000+0  33501-4 0  9997,2 45189  53.1595 302.6675 0001514  94.6317 265.4857 15.30202868335369
STARLINK-1234,45190,53.0428,0.0006929,15.65955785,365.81520936091056,375.1674585060764,1 45190U 20012N   26089.54132691  .00074633  00000+0  71607-3 0  9996,2 45190  53.0428 223.0377 0006929 358.3325   1.7665 15.65955785339143
STARLINK-1269,45197,53.1589,0.0001385,15.30193734,474.28458677687286,476.1829704825532,1 45197U 20012V   26089.58297348  .00002967  00000+0  11229-3 0  9993,2 45197  53.1589 302.5420 0001385  87.7231 272.3929 15.30193734338116
STARLINK-1154,45198,53.045,0.0005093,15.49277888,415.3755779039748,422.29897590242945,1 45198U 20012W   26089.47798588  .00055633  00000+0  10018-2 0  9996,2 45198  53.0450 270.5835 0005093 178.7415 181.3607 15.49277888338511
STARLINK-1199,45201,53.1578,0.0001114,15.30207929,474.4279341735655,475.9548557399612,1 45201U 20012Z   26087.98470370  .00003331  00000+0  12449-3 0  9990,2 45201  53.1578 294.2130 0001114  87.7219 272.3909 15.30207929338111
STARLINK-1209,45206,53.0453,0.0009067,15.5475949,396.7035297886414,409.0001749735493,1 45206U 20012AE  26089.39826527  .00113758  00000+0  16620-2 0  9990,2 45206  53.0453 233.6292 0009067 339.7467  20.3182 15.54759490338130
STARLINK-1231,45212,53.0404,0.0003515,15.22814812,494.93824277315525,499.7717136338324,1 45212U 20012AL  26089.49609269  .00053465  00000+0  22543-2 0  9999,2 45212  53.0404 280.1012 0003515 174.5780 185.5255 15.22814812338393
STARLINK-1271,45217,53.1592,0.000129,15.30200418,474.3297390909993,476.09790360290754,1 45217U 20012AR  26089.55017014  .00000590  00000+0  32061-4 0  9991,2 45217  53.1592 287.0613 0001290 103.8635 256.2509 15.30200418338356
STARLINK-1191,45222,53.1573,6.46e-05,15.31862057,469.8145480806379,470.6993605795378,1 45222U 20012AW  26088.18908355  .00074037  00000+0  23620-2 0  9998,2 45222  53.1573 268.1505 0000646 308.5776  51.5167 15.31862057338502
STARLINK-1212,45223,53.0461,0.0003813,15.56040056,396.54682676016364,401.7151713362373,1 45223U 20012AX  26089.62320819  .00128458  00000+0  17887-2 0  9997,2 45223  53.0461 249.0233 0003813 224.7147 135.3556 15.56040056338893
STARLINK-1215,45225,53.1576,0.0001129,15.30203388,474.43121117413284,475.9786957872275,1 45225U 20012AZ  26089.49110847  .00001659  00000+0  68126-4 0  9999,2 45225  53.1576 261.6836 0001129  92.0511 268.0619 15.30203388338661
STARLINK-1221,45227,53.0654,0.0003718,15.42708045,435.5865798877703,440.6551492358576,1 45227U 20012BB  26089.51821282  .00022579  00000+0  51715-3 0  9995,2 45227  53.0654 170.8583 0003718  75.2414 284.9003 15.42708045339927
STARLINK-1222,45228,53.053,0.0002634,15.50836755,412.49261103116896,416.0708572203057,1 45228U 20012BC  26089.57406076  .00035371  00000+0  60746-3 0  9990,2 45228  53.0530 242.5812 0002634 145.1554 214.9627 15.50836755338867
STARLINK-1226,45229,53.1576,0.0001309,15.37161867,453.6122897597661,455.40107587592775,1 45229U 20012BD  26089.58336806  .00013332  00000+0  37102-3 0  9998,2 45229  53.1576 261.3048 0001309  99.8952  19.1871 15.37161867  5793
STARLINK-1227,45230,53.1558,7.92e-05,15.37092078,454.17233571776524,455.2546592365661,1 45230U 20012BE  26089.58336806  .00007707  00000+0  21955-3 0  9998,2 45230  53.1558 261.4660 0000792  99.4354 305.0690 15.37092078  5752
STARLINK-1246,45235,53.1591,0.000126,15.30197409,474.35928235369283,476.0863290247262,1 45235U 20012BK  26089.00456692  .00001747  00000+0  71094-4 0  9994,2 45235  53.1591 304.8876 0001260  97.7654 262.3490 15.30197409338085
STARLINK-1270,45237,53.0482,0.0001494,15.5033526,414.73143496209923,416.76144733431465,1 45237U 20012BM  26089.42728175  .00109736  00000+0  18839-2 0  9993,2 45237  53.0482 248.2441 0001494 234.8723 125.2146 15.50335260338888
STARLINK-1279,45360,53.0433,0.0002959,15.61348707,381.75943851644297,385.76112932906835,1 45360U 20019A   26089.46637015  .00146632  00000+0  16667-2 0  9996,2 45360  53.0433 357.6021 0002959 179.4905 180.6112 15.61348707333912
STARLINK-1301,45361,53.0437,7.68e-05,15.67652061,365.1043048220281,366.1401462390686,1 45361U 20019B   26089.46302354  .00082131  00000+0  73550-3 0  9990,2 45361  53.0437   1.9287 0000768 261.8761  98.2167 15.67652061333867
STARLINK-1262,45366,53.1562,0.0001531,15.29342876,476.7258421768329,478.8251225789363,1 45366U 20019G   26089.25728673 -.00001735  00000+0 -47808-4 0  9999,2 45366  53.1562  69.6947 0001531  86.5577 273.5598 15.29342876332900
STARLINK-1273,45367,53.0506,0.0004137,15.4715222,422.2470484088062,427.87601487388565,1 45367U 20019H   26089.22532634  .00088969  00000+0  17131-2 0  9993,2 45367  53.0506  56.9095 0004137  77.3524 282.7945 15.47152220333075
STARLINK-1277,45369,53.0498,0.0005887,15.52315821,405.9702909461794,413.9626039452014,1 45369U 20019K   26089.19070934  .00102734  00000+0  16446-2 0  9996,2 45369  53.0498  54.1523 0005887  84.0856 276.0823 15.52315821333119
STARLINK-1281,45370,53.1616,0.0001348,15.30183486,474.3405391843917,476.1882161958174,1 45370U 20019L   26089.31091885  .00000325  00000+0  23110-4 0  9991,2 45370  53.1616  69.5056 0001348  99.1407 260.9747 15.30183486332912
STARLINK-1300,45374,53.1611,0.0001445,15.30181185,474.2809307016687,476.2615656853959,1 45374U 20019Q   26089.20240524 -.00000922  00000+0 -19008-4 0  9995,2 45374  53.1611  70.0141 0001445  92.3367 267.7799 15.30181185332894
STARLINK-1302,45375,53.052,0.0003255,15.57450913,392.8328041167006,397.24214069823756,1 45375U 20019R   26089.58775881  .00126781  00000+0  16757-2 0  9992,2 45375  53.0520  50.6603 0003255  47.0072 313.1212 15.57450913333198
STARLINK-1304,45376,53.049,0.0003683,15.51729944,409.17428012674645,414.17565562228356,1 45376U 20019S   26089.60139776  .00113858  00000+0  18585-2 0  9995,2 45376  53.0490  49.1557 0003683  72.5441 287.5970 15.51729944333219
STARLINK-1305,45377,53.0431,0.0004295,15.56890119,393.7540691002987,399.5736230270677,1 45377U 20019T   26089.08482932  .00124841  00000+0  16852-2 0  9992,2 45377  53.0431  33.6494 0004295 148.9795 211.1470 15.56890119333398
STARLINK-1319,45379,53.045,0.0003001,15.67775347,363.24498308537477,367.29237517398906,1 45379U 20019V   26089.53411007  .00083167  00000+0  74080-3 0  9992,2 45379  53.0450  27.1859 0003001 115.6446 244.4880 15.67775347333528
STARLINK-1266,45383,53.0501,0.0004968,15.48504437,417.72254091343257,424.4782631961143,1 45383U 20019Z   26089.13820755  .00097104  00000+0  17811-2 0  9991,2 45383  53.0501  35.2793 0004968  90.9741 269.1835 15.48504437333368
STARLINK-1267,45384,53.0506,0.0001102,15.53458445,405.8897625929185,407.3851268805374,1 45384U 20019AA  26089.58336806  .00123881  00000+0  18975-2 0  9994,2 45384  53.0506  26.5106 0001102  23.7606 137.8368 15.53458445  5918
STARLINK-1272,45386,53.0444,0.0003176,15.59747071,386.2394411462619,390.53753813728235,1 45386U 20019AC  26089.06648554  .00126615  00000+0  15348-2 0  9994,2 45386  53.0444  10.8003 0003176 171.9583 188.1481 15.59747071333704
STARLINK-1274,45387,53.0289,0.0002321,15.50358991,414.1002684080131,417.25395691911217,1 45387U 20019AD  26089.04980331  .00099578  00000+0  17109-2 0  9999,2 45387  53.0289   5.3724 0002321 264.9806  95.0937 15.50358991333772
STARLINK-1280,45388,53.0436,0.0001881,15.68120396,363.01118226832295,365.5476793295884,1 45388U 20019AE  26089.06335466  .00084705  00000+0  74381-3 0  9997,2 45388  53.0436  22.2241 0001881 131.2862 228.8316 15.68120396333533
STARLINK-1283,45389,53.0447,9.67e-05,15.63621844,376.5519852967791,377.85846848345955,1 45389U 20019AF  26089.47737545  .00068209  00000+0  71966-3 0  9994,2 45389  53.0447   8.7197 0000967 115.2850 244.8264 15.63621844333773
STARLINK-1284,45390,53.0475,0.0004935,15.55313785,397.89502558824825,404.5862713272754,1 45390U 20019AG  26089.13579646  .00113227  00000+0  16230-2 0  9998,2 45390  53.0475  32.3482 0004935  97.8123 262.3447 15.55313785333404
STARLINK-1297,45395,53.0472,0.0005922,15.58178551,388.91885912109683,396.938509317486,1 45395U 20019AM  26089.49830258  .00133093  00000+0  17094-2 0  9993,2 45395  53.0472  29.9223 0005922 102.4256 257.7419 15.58178551332654
STARLINK-1307,45397,53.0556,0.0001937,15.52155439,409.1190965248161,411.74898894677244,1 45397U 20019AP  26089.58336806 -.00003085  00000+0 -42574-4 0  9997,2 45397  53.0556  30.3978 0001937  83.6559  16.9460 15.52155439  5922
STARLINK-1255,45399,53.0416,0.0001522,15.55683021,399.1362400771832,401.19955608816053,1 45399U 20019AR  26089.46537998  .00113687  00000+0  16080-2 0  9990,2 45399  53.0416   2.4645 0001522 120.5388 239.5773 15.55683021333662
STARLINK-1260,45404,53.1589,0.0001193,15.31292369,471.13817555124024,472.772607595869,1 45404U 20019AW  26089.52981134  .00064919  00000+0  21122-2 0  9995,2 45404  53.1589  32.4022 0001193 118.9524 241.1597 15.31292369333163
STARLINK-1263,45405,53.1601,8.62e-05,15.30203935,474.61256230818617,475.7940781793959,1 45405U 20019AX  26089.12968165  .00003863  00000+0  14247-3 0  9993,2 45405  53.1601  34.3288 0000862 103.1068 257.0029 15.30203935333105
